SITRO-AIS 8 (ANOKHIN)   
1 57193U 23091AD  26200.27633547  .00007351  00000+0  23345-3 0  9992
2 57193  97.5033 266.2162 0009079 353.0099   7.1015 15.32919625169365
SITRO-AIS 7 (FARTUSHNIY)
1 57194U 23091AE  26200.24989965  .00004848  00000+0  19033-3 0  9995
2 57194  97.5042 263.2209 0010708   3.5934 356.5379 15.26152003169165
AVION KALUGA 650        
1 57195U 23091AF  26200.27697905  .00002583  00000+0  12074-3 0  9991
2 57195  97.5068 259.7270 0010022   8.5067 351.6336 15.20655262168902
HORS 2                  
1 57196U 23091AG  26200.29376927  .00006815  00000+0  21881-3 0  9990
2 57196  97.5066 267.7756 0006428 339.2497  20.8482 15.32621130169442
A-SEANSAT-PG1           
1 57197U 23091AH  26200.29221446  .00009587  00000+0  25888-3 0  9996
2 57197  97.5058 270.5806 0005294 332.1201  27.9759 15.37967483169643
SITRO-AIS 10 (BURDAEV)  
1 57199U 23091AK  26200.29945291  .00010224  00000+0  26070-3 0  9993
2 57199  97.5059 271.6340 0004529 322.7364  37.3566 15.39718975169706
SITRO-AIS 9 (SHCHUKIN)  
1 57201U 23091AM  26200.27135212  .00010025  00000+0  26000-3 0  9991
2 57201  97.5057 271.3092 0004792 323.5151  36.5767 15.39200965169680
UTMN 2 (RS27S)          
1 57203U 23091AP  26200.25259438  .00006360  00000+0  20351-3 0  9998
2 57203  97.5065 267.9321 0006354 334.0489  26.0434 15.32757000169454
SITRO-AIS 12 (SMIRENNIY)
1 57204U 23091AQ  26200.25585597  .00010363  00000+0  26614-3 0  9993
2 57204  97.5070 271.7808 0004421 315.3432  44.7457 15.39496939169705
SITRO-AIS 11 (SHEFFER)  
1 57208U 23091AU  26200.26020203  .00010478  00000+0  26517-3 0  9995
2 57208  97.5068 272.0525 0004354 314.4172  45.6717 15.39943679169721
H2SAT (HEINRICH HERTZ)  
1 57213U 23093A   26199.97961603 -.00000003  00000+0  00000+0 0  9995
2 57213   0.0260 103.9382 0000285 204.6878 341.5042  1.00275016 11232
KUZGTU 1 (RS47S)        
1 57217U 23091AV  26200.14168794  .00006376  00000+0  21845-3 0  9991
2 57217  97.5042 264.9598 0009659 351.8433   8.2648 15.30521224169267
QIANKUN-1               
1 57422U 23103B   26197.61257860  .00006165  16552-5  75371-5 0  9999
2 57422  96.1400 240.3808 0035589 130.8922 229.5456 16.07858994172024
FENGYUN 3F              
1 57490U 23111A   26200.31772662  .00000007  00000+0  23783-4 0  9990
2 57490  98.6822 269.7254 0001195  75.4578 284.6731 14.19943863153423
HJ-2F                   
1 57519U 23116A   26200.25891943  .00003710  00000+0  16202-3 0  9995
2 57519  97.3854 204.9293 0006368 294.6951  65.3623 15.22726658163631
XRISM                   
1 57800U 23137A   26200.19546554  .00002220  00000+0  11825-3 0  9990
2 57800  31.0011 152.2226 0007840 285.9268  74.0507 15.12686798157714
METEOR-M2 4             
1 59051U 24039A   26200.25935704 -.00000017  00000+0  12162-4 0  9997
2 59051  98.7028 159.1575 0008247  78.7163 281.4941 14.22432337123828
GRBBETA                 
1 60237U 24128C   26200.14111280  .00001698  00000+0  12636-3 0  9997
2 60237  61.9889 104.1391 0036551 141.5469 218.8240 15.06823469111080
TRANSPORTER-11 OBJECT A 
1 60468U 24149A   26200.19957774  .00004543  00000+0  14326-3 0  9997
2 60468  97.3720 280.0388 0004975 106.5486 253.6304 15.33377064106962
WARATAH SEED-1          
1 60469U 24149B   26200.15609110  .00007039  00000+0  19878-3 0  9992
2 60469  97.3675 280.7760 0003291 113.2194 246.9397 15.36677145107025
PHISAT 2                
1 60470U 24149C   26200.19819841  .00004553  00000+0  15240-3 0  9999
2 60470  97.3742 279.2435 0003347 115.4642 244.6946 15.31466424106898
LEMUR-2-TOMATOKECHUP    
1 60471U 24149D   26200.21710426  .00005714  00000+0  16205-3 0  9994
2 60471  97.3787 282.3582 0003415 114.6997 245.4603 15.36630911107086
CONNECTA IOT-1          
1 60472U 24149E   26200.14458156  .00002020  00000+0  86915-4 0  9999
2 60472  97.3745 275.8990 0003081 134.1135 226.0357 15.23758775106660
LOPEN                   
1 60473U 24149F   26200.22625091  .00008354  00000+0  20782-3 0  9998
2 60473  97.3767 283.8633 0002973 126.9995 233.1524 15.40534251107194
ROCK                    
1 60474U 24149G   26200.21301989  .00008007  00000+0  19937-3 0  9990
2 60474  97.3763 283.8639 0003250 123.9273 236.2283 15.40521087107191
CONNECTA IOT-3          
1 60475U 24149H   26200.16568965  .00002006  00000+0  86323-4 0  9991
2 60475  97.3719 275.6630 0004251 133.6395 226.5195 15.23772626106672
QUBE                    
1 60476U 24149J   26200.23673487  .00014311  00000+0  26954-3 0  9991
2 60476  97.3766 287.3216 0003366 121.6040 238.5540 15.48625189107424
WREN-1                  
1 60478U 24149L   26200.18787418  .00011577  00000+0  26693-3 0  9998
2 60478  97.3753 284.6634 0005701 140.1083 220.0584 15.42722604107253
TOMORROW-S1             
1 60479U 24149M   26200.18710776  .00003813  00000+0  12161-3 0  9991
2 60479  97.3737 280.5663 0004236 122.3410 237.8243 15.33124740106996
