OBJECT_NAME,OBJECT_ID,EPOCH,MEAN_MOTION,ECCENTRICITY,INCLINATION,RA_OF_ASC_NODE,ARG_OF_PERICENTER,MEAN_ANOMALY,EPHEMERIS_TYPE,CLASSIFICATION_TYPE,NORAD_CAT_ID,ELEMENT_SET_NO,REV_AT_EPOCH,BSTAR,MEAN_MOTION_DOT,MEAN_MOTION_DDOT
SITRO-AIS 8 (ANOKHIN),2023-091AD,2026-07-19T06:37:55.384608,15.32919625,.00090794,97.5033,266.2162,353.0099,7.1015,0,U,57193,999,16936,.23345321E-3,.7351E-4,0
SITRO-AIS 7 (FARTUSHNIY),2023-091AE,2026-07-19T05:59:51.329760,15.26152003,.00107088,97.5042,263.2209,3.5934,356.5379,0,U,57194,999,16916,.19033097E-3,.4848E-4,0
AVION KALUGA 650,2023-091AF,2026-07-19T06:38:50.989920,15.20655262,.00100224,97.5068,259.7270,8.5067,351.6336,0,U,57195,999,16890,.12074146E-3,.2583E-4,0
HORS 2,2023-091AG,2026-07-19T07:03:01.664928,15.32621130,.00064283,97.5066,267.7756,339.2497,20.8482,0,U,57196,999,16944,.21880773E-3,.6815E-4,0
A-SEANSAT-PG1,2023-091AH,2026-07-19T07:00:47.329344,15.37967483,.00052946,97.5058,270.5806,332.1201,27.9759,0,U,57197,999,16964,.25888333E-3,.9587E-4,0
SITRO-AIS 10 (BURDAEV),2023-091AK,2026-07-19T07:11:12.731424,15.39718975,.00045299,97.5059,271.6340,322.7364,37.3566,0,U,57199,999,16970,.26070125E-3,.10224E-3,0
SITRO-AIS 9 (SHCHUKIN),2023-091AM,2026-07-19T06:30:44.823168,15.39200965,.00047923,97.5057,271.3092,323.5151,36.5767,0,U,57201,999,16968,.25999861E-3,.10025E-3,0
UTMN 2 (RS27S),2023-091AP,2026-07-19T06:03:44.154432,15.32757000,.00063548,97.5065,267.9321,334.0489,26.0434,0,U,57203,999,16945,.20351466E-3,.636E-4,0
SITRO-AIS 12 (SMIRENNIY),2023-091AQ,2026-07-19T06:08:25.955808,15.39496939,.00044218,97.5070,271.7808,315.3432,44.7457,0,U,57204,999,16970,.26613528E-3,.10363E-3,0
SITRO-AIS 11 (SHEFFER),2023-091AU,2026-07-19T06:14:41.455392,15.39943679,.00043541,97.5068,272.0525,314.4172,45.6717,0,U,57208,999,16972,.26516657E-3,.10478E-3,0
H2SAT (HEINRICH HERTZ),2023-093A,2026-07-18T23:30:38.824992,1.00275016,.00002851,0.0260,103.9382,204.6878,341.5042,0,U,57213,999,1123,0,-.3E-7,0
KUZGTU 1 (RS47S),2023-091AV,2026-07-19T03:24:01.838016,15.30521224,.00096592,97.5042,264.9598,351.8433,8.2648,0,U,57217,999,16926,.21844877E-3,.6376E-4,0
QIANKUN-1,2023-103B,2026-07-16T14:42:06.791040,16.07858994,.0035589,96.1400,240.3808,130.8922,229.5456,0,U,57422,999,17202,.75371E-5,.6165E-4,.16552E-5
FENGYUN 3F,2023-111A,2026-07-19T07:37:31.579968,14.19943863,.00011957,98.6822,269.7254,75.4578,284.6731,0,U,57490,999,15342,.23783125E-4,.7E-7,0
HJ-2F,2023-116A,2026-07-19T06:12:50.638752,15.22726658,.00063687,97.3854,204.9293,294.6951,65.3623,0,U,57519,999,16363,.16201891E-3,.371E-4,0
XRISM,2023-137A,2026-07-19T04:41:28.222656,15.12686798,.00078403,31.0011,152.2226,285.9268,74.0507,0,U,57800,999,15771,.11825372E-3,.222E-4,0
METEOR-M2 4,2024-039A,2026-07-19T06:13:28.448256,14.22432337,.00082475,98.7028,159.1575,78.7163,281.4941,0,U,59051,999,12382,.12162259E-4,-.17E-6,0
GRBBETA,2024-128C,2026-07-19T03:23:12.145920,15.06823469,.00365518,61.9889,104.1391,141.5469,218.8240,0,U,60237,999,11108,.12636319E-3,.1698E-4,0
TRANSPORTER-11 OBJECT A,2024-149A,2026-07-19T04:47:23.516736,15.33377064,.00049757,97.3720,280.0388,106.5486,253.6304,0,U,60468,999,10696,.1432607E-3,.4543E-4,0
WARATAH SEED-1,2024-149B,2026-07-19T03:44:46.271040,15.36677145,.0003291,97.3675,280.7760,113.2194,246.9397,0,U,60469,999,10702,.19878433E-3,.7039E-4,0
PHISAT 2,2024-149C,2026-07-19T04:45:24.342624,15.31466424,.0003347,97.3742,279.2435,115.4642,244.6946,0,U,60470,999,10689,.15239867E-3,.4553E-4,0
LEMUR-2-TOMATOKECHUP,2024-149D,2026-07-19T05:12:37.808064,15.36630911,.00034158,97.3787,282.3582,114.6997,245.4603,0,U,60471,999,10708,.16204635E-3,.5714E-4,0
CONNECTA IOT-1,2024-149E,2026-07-19T03:28:11.846784,15.23758775,.00030819,97.3745,275.8990,134.1135,226.0357,0,U,60472,999,10666,.86914978E-4,.202E-4,0
LOPEN,2024-149F,2026-07-19T05:25:48.078624,15.40534251,.00029737,97.3767,283.8633,126.9995,233.1524,0,U,60473,999,10719,.20782019E-3,.8354E-4,0
ROCK,2024-149G,2026-07-19T05:06:44.918496,15.40521087,.00032501,97.3763,283.8639,123.9273,236.2283,0,U,60474,999,10719,.19937094E-3,.8007E-4,0
CONNECTA IOT-3,2024-149H,2026-07-19T03:58:35.585760,15.23772626,.00042519,97.3719,275.6630,133.6395,226.5195,0,U,60475,999,10667,.86323377E-4,.2006E-4,0
QUBE,2024-149J,2026-07-19T05:40:53.892768,15.48625189,.00033669,97.3766,287.3216,121.6040,238.5540,0,U,60476,999,10742,.26954438E-3,.14311E-3,0
WREN-1,2024-149L,2026-07-19T04:30:32.329152,15.42722604,.00057012,97.3753,284.6634,140.1083,220.0584,0,U,60478,999,10725,.26692579E-3,.11577E-3,0
TOMORROW-S1,2024-149M,2026-07-19T04:29:26.110464,15.33124740,.0004236,97.3737,280.5663,122.3410,237.8243,0,U,60479,999,10699,.12161231E-3,.3813E-4,0
